ORBCOMM FM103           
1 40091U 14040F   24236.70895688  .00002076  00000+0  49495-3 0  9999
2 40091  47.0065 341.5384 0002154 324.1274  35.9466 14.56938540537767
ORBCOMM FM114           
1 41179U 15081A   24236.73851980  .00001938  00000+0  46429-3 0  9993
2 41179  47.0008 250.6097 0001515  18.7590 341.3350 14.56965252461122
ORBCOMM FM119           
1 41180U 15081B   24237.46826494  .00002020  00000+0  48274-3 0  9991
2 41180  46.9995 156.3969 0000819 144.5769 215.5170 14.56917456462439
ORBCOMM FM105           
1 41181U 15081C   24237.02963445  .00000991  00000+0  32906-3 0  9992
2 41181  47.0015 135.0898 0001377  54.8091 305.2917 14.44569975457886
ORBCOMM FM110           
1 41182U 15081D   24237.12675534  .00001733  00000+0  41862-3 0  9999
2 41182  47.0005 248.1736 0002618 261.6568  98.4020 14.57027239461189
ORBCOMM FM118           
1 41183U 15081E   24237.17317629  .00001415  00000+0  34878-3 0  9999
2 41183  47.0030 248.2877 0002816 256.6113 103.4459 14.57010985461199
ORBCOMM FM112           
1 41184U 15081F   24237.51392189  .00002704  00000+0  63373-3 0  9996
2 41184  46.9980 155.3807 0001228  97.6180 262.4844 14.56907049462433
ORBCOMM FM113           
1 41185U 15081G   24237.14814672  .00002398  00000+0  56627-3 0  9995
2 41185  46.9997 157.3875 0000828 119.0773 241.0195 14.56912700462387
